0 STARLINK-30779
1 58160U 23166L   24003.11818667  .00010814  00000-0  52872-3 0  9996
2 58160  53.0519 311.2140 0002139 109.5258 250.5968 15.18736827 11355
0 STARLINK-30773
1 58161U 23166M   24003.11780157  .00008687  00000-0  42792-3 0  9994
2 58161  53.0509 311.2219 0001667  77.9242 282.1939 15.18729078 11379
0 STARLINK-30816
1 58162U 23166N   24002.12600192  .00006252  00000-0  31236-3 0  9992
2 58162  53.0519 315.7064 0002050  85.0766 275.0463 15.18725447 11207
0 STARLINK-30763
1 58163U 23166P   24003.14128137  .00052244  00000-0  23819-2 0  9999
2 58163  53.0543 308.4662 0003194 152.5409 207.5755 15.20158390 11396
0 STARLINK-30815
1 58164U 23166Q   24003.11275334 -.00000506  00000-0 -88797-5 0  9994
2 58164  53.0524 311.1976 0002818  47.5923 312.5309 15.18698653 11368
0 STARLINK-30814
1 58165U 23166R   24003.16372176  .00003408  00000-0  17722-3 0  9992
2 58165  53.0515 310.7954 0001863  92.4373 267.6834 15.18726976 11360
0 STARLINK-30789
1 58166U 23166S   24002.84443104 -.00000465  00000-0 -69502-5 0  9994
2 58166  53.0509 312.3660 0001894  94.1780 265.9430 15.18719394 11315
0 STARLINK-30811
1 58167U 23166T   24003.16840296  .00015791  00000-0  76449-3 0  9996
2 58167  53.0508 310.8250 0001947  82.0808 278.0407 15.18739780 11207
0 STARLINK-30812
1 58168U 23166U   24003.16877659  .00002022  00000-0  11131-3 0  9990
2 58168  53.0533 310.8231 0001852 100.3695 259.7508 15.18737700 11206
0 STARLINK-30771
1 58169U 23166V   24003.16333512  .00003788  00000-0  19530-3 0  9997
2 58169  53.0531 310.7809 0002157  83.3080 276.8160 15.18726403 11361
0 STARLINK-30764
1 58170U 23166W   24003.15864823  .00001046  00000-0  64922-4 0  9993
2 58170  53.0532 310.7636 0002020  81.3970 278.7253 15.18717040 11368
0 STARLINK-30752
1 58171U 23166X   24002.82454263  .00007887  00000-0  38994-3 0  9998
2 58171  53.0546 312.2371 0002640 106.3385 253.7900 15.18728482 11312
0 COSMOS 2571
1 58172U 23165C   24002.89725010  .00000037  00000-0  80273-4 0  9994
2 58172  67.1460 307.7022 0018508 297.4510  62.4692 13.97204397  9148
0 STARLINK-30753
1 58175U 23167A   24002.85088842  .00010213  00000-0  53369-3 0  9992
2 58175  42.9992 158.8259 0001443 276.2252  83.8431 15.15974739 11054
0 STARLINK-30824
1 58176U 23167B   24002.84861141  .00007927  00000-0  41706-3 0  9993
2 58176  42.9991 158.8090 0001471 273.9349  86.1330 15.15968276 11052
0 STARLINK-30791
1 58177U 23167C   24002.79624476  .00000433  00000-0  34024-4 0  9997
2 58177  43.0000 158.4086 0001514 263.1297  96.9378 15.15964195 11055
0 STARLINK-30810
1 58178U 23167D   24002.84177951  .00014173  00000-0  73542-3 0  9998
2 58178  42.9976 158.7600 0001213 271.3835  88.6874 15.15981973 11058
