[{"OBJECT_NAME":"STARLINK-30779","OBJECT_ID":"2023-166L","EPOCH":"2024-01-03T02:50:11.328288","MEAN_MOTION":15.18736827,"ECCENTRICITY":0.0002139,"INCLINATION":53.0519,"RA_OF_ASC_NODE":311.214,"ARG_OF_PERICENTER":109.5258,"MEAN_ANOMALY":250.5968,"EPHEMERIS_TYPE":0,"CLASSIFICATION_TYPE":"U","NORAD_CAT_ID":58160,"ELEMENT_SET_NO":999,"REV_AT_EPOCH":1135,"BSTAR":0.00052872,"MEAN_MOTION_DOT":0.00010814,"MEAN_MOTION_DDOT":0},{"OBJECT_NAME":"STARLINK-30773","OBJECT_ID":"2023-166M","EPOCH":"2024-01-03T02:49:38.055648","MEAN_MOTION":15.18729078,"ECCENTRICITY":0.0001667,"INCLINATION":53.0509,"RA_OF_ASC_NODE":311.2219,"ARG_OF_PERICENTER":77.9242,"MEAN_ANOMALY":282.1939,"EPHEMERIS_TYPE":0,"CLASSIFICATION_TYPE":"U","NORAD_CAT_ID":58161,"ELEMENT_SET_NO":999,"REV_AT_EPOCH":1137,"BSTAR":0.00042792,"MEAN_MOTION_DOT":8.687e-5,"MEAN_MOTION_DDOT":0},{"OBJECT_NAME":"STARLINK-30816","OBJECT_ID":"2023-166N","EPOCH":"2024-01-02T03:01:26.565888","MEAN_MOTION":15.18725447,"ECCENTRICITY":0.000205,"INCLINATION":53.0519,"RA_OF_ASC_NODE":315.7064,"ARG_OF_PERICENTER":85.0766,"MEAN_ANOMALY":275.0463,"EPHEMERIS_TYPE":0,"CLASSIFICATION_TYPE":"U","NORAD_CAT_ID":58162,"ELEMENT_SET_NO":999,"REV_AT_EPOCH":1120,"BSTAR":0.00031236,"MEAN_MOTION_DOT":6.252e-5,"MEAN_MOTION_DDOT":0},{"OBJECT_NAME":"STARLINK-30763","OBJECT_ID":"2023-166P","EPOCH":"2024-01-03T03:23:26.710368","MEAN_MOTION":15.2015839,"ECCENTRICITY":0.0003194,"INCLINATION":53.0543,"RA_OF_ASC_NODE":308.4662,"ARG_OF_PERICENTER":152.5409,"MEAN_ANOMALY":207.5755,"EPHEMERIS_TYPE":0,"CLASSIFICATION_TYPE":"U","NORAD_CAT_ID":58163,"ELEMENT_SET_NO":999,"REV_AT_EPOCH":1139,"BSTAR":0.0023819,"MEAN_MOTION_DOT":0.00052244,"MEAN_MOTION_DDOT":0},{"OBJECT_NAME":"STARLINK-30815","OBJECT_ID":"2023-166Q","EPOCH":"2024-01-03T02:42:21.888576","MEAN_MOTION":15.18698653,"ECCENTRICITY":0.0002818,"INCLINATION":53.0524,"RA_OF_ASC_NODE":311.1976,"ARG_OF_PERICENTER":47.5923,"MEAN_ANOMALY":312.5309,"EPHEMERIS_TYPE":0,"CLASSIFICATION_TYPE":"U","NORAD_CAT_ID":58164,"ELEMENT_SET_NO":999,"REV_AT_EPOCH":1136,"BSTAR":-8.8797e-6,"MEAN_MOTION_DOT":-5.06e-6,"MEAN_MOTION_DDOT":0},{"OBJECT_NAME":"STARLINK-30814","OBJECT_ID":"2023-166R","EPOCH":"2024-01-03T03:55:45.560064","MEAN_MOTION":15.18726976,"ECCENTRICITY":0.0001863,"INCLINATION":53.0515,"RA_OF_ASC_NODE":310.7954,"ARG_OF_PERICENTER":92.4373,"MEAN_ANOMALY":267.6834,"EPHEMERIS_TYPE":0,"CLASSIFICATION_TYPE":"U","NORAD_CAT_ID":58165,"ELEMENT_SET_NO":999,"REV_AT_EPOCH":1136,"BSTAR":0.00017722,"MEAN_MOTION_DOT":3.408e-5,"MEAN_MOTION_DDOT":0},{"OBJECT_NAME":"STARLINK-30789","OBJECT_ID":"2023-166S","EPOCH":"2024-01-02T20:15:58.841856","MEAN_MOTION":15.18719394,"ECCENTRICITY":0.0001894,"INCLINATION":53.0509,"RA_OF_ASC_NODE":312.366,"ARG_OF_PERICENTER":94.178,"MEAN_ANOMALY":265.943,"EPHEMERIS_TYPE":0,"CLASSIFICATION_TYPE":"U","NORAD_CAT_ID":58166,"ELEMENT_SET_NO":999,"REV_AT_EPOCH":1131,"BSTAR":-6.9502e-6,"MEAN_MOTION_DOT":-4.65e-6,"MEAN_MOTION_DDOT":0},{"OBJECT_NAME":"STARLINK-30811","OBJECT_ID":"2023-166T","EPOCH":"2024-01-03T04:02:30.015744","MEAN_MOTION":15.1873978,"ECCENTRICITY":0.0001947,"INCLINATION":53.0508,"RA_OF_ASC_NODE":310.825,"ARG_OF_PERICENTER":82.0808,"MEAN_ANOMALY":278.0407,"EPHEMERIS_TYPE":0,"CLASSIFICATION_TYPE":"U","NORAD_CAT_ID":58167,"ELEMENT_SET_NO":999,"REV_AT_EPOCH":1120,"BSTAR":0.00076449,"MEAN_MOTION_DOT":0.00015791,"MEAN_MOTION_DDOT":0},{"OBJECT_NAME":"STARLINK-30812","OBJECT_ID":"2023-166U","EPOCH":"2024-01-03T04:03:02.297376","MEAN_MOTION":15.187377,"ECCENTRICITY":0.0001852,"INCLINATION":53.0533,"RA_OF_ASC_NODE":310.8231,"ARG_OF_PERICENTER":100.3695,"MEAN_ANOMALY":259.7508,"EPHEMERIS_TYPE":0,"CLASSIFICATION_TYPE":"U","NORAD_CAT_ID":58168,"ELEMENT_SET_NO":999,"REV_AT_EPOCH":1120,"BSTAR":0.00011131,"MEAN_MOTION_DOT":2.022e-5,"MEAN_MOTION_DDOT":0},{"OBJECT_NAME":"STARLINK-30771","OBJECT_ID":"2023-166V","EPOCH":"2024-01-03T03:55:12.154368","MEAN_MOTION":15.18726403,"ECCENTRICITY":0.0002157,"INCLINATION":53.0531,"RA_OF_ASC_NODE":310.7809,"ARG_OF_PERICENTER":83.308,"MEAN_ANOMALY":276.816,"EPHEMERIS_TYPE":0,"CLASSIFICATION_TYPE":"U","NORAD_CAT_ID":58169,"ELEMENT_SET_NO":999,"REV_AT_EPOCH":1136,"BSTAR":0.0001953,"MEAN_MOTION_DOT":3.788e-5,"MEAN_MOTION_DDOT":0},{"OBJECT_NAME":"STARLINK-30764","OBJECT_ID":"2023-166W","EPOCH":"2024-01-03T03:48:27.207072","MEAN_MOTION":15.1871704,"ECCENTRICITY":0.000202,"INCLINATION":53.0532,"RA_OF_ASC_NODE":310.7636,"ARG_OF_PERICENTER":81.397,"MEAN_ANOMALY":278.7253,"EPHEMERIS_TYPE":0,"CLASSIFICATION_TYPE":"U","NORAD_CAT_ID":58170,"ELEMENT_SET_NO":999,"REV_AT_EPOCH":1136,"BSTAR":6.4922e-5,"MEAN_MOTION_DOT":1.046e-5,"MEAN_MOTION_DDOT":0},{"OBJECT_NAME":"STARLINK-30752","OBJECT_ID":"2023-166X","EPOCH":"2024-01-02T19:47:20.483232","MEAN_MOTION":15.18728482,"ECCENTRICITY":0.000264,"INCLINATION":53.0546,"RA_OF_ASC_NODE":312.2371,"ARG_OF_PERICENTER":106.3385,"MEAN_ANOMALY":253.79,"EPHEMERIS_TYPE":0,"CLASSIFICATION_TYPE":"U","NORAD_CAT_ID":58171,"ELEMENT_SET_NO":999,"REV_AT_EPOCH":1131,"BSTAR":0.00038994,"MEAN_MOTION_DOT":7.887e-5,"MEAN_MOTION_DDOT":0},{"OBJECT_NAME":"COSMOS 2571","OBJECT_ID":"2023-165C","EPOCH":"2024-01-02T21:32:02.408640","MEAN_MOTION":13.97204397,"ECCENTRICITY":0.0018508,"INCLINATION":67.146,"RA_OF_ASC_NODE":307.7022,"ARG_OF_PERICENTER":297.451,"MEAN_ANOMALY":62.4692,"EPHEMERIS_TYPE":0,"CLASSIFICATION_TYPE":"U","NORAD_CAT_ID":58172,"ELEMENT_SET_NO":999,"REV_AT_EPOCH":914,"BSTAR":8.0273e-5,"MEAN_MOTION_DOT":3.7e-7,"MEAN_MOTION_DDOT":0},{"OBJECT_NAME":"STARLINK-30753","OBJECT_ID":"2023-167A","EPOCH":"2024-01-02T20:25:16.759488","MEAN_MOTION":15.15974739,"ECCENTRICITY":0.0001443,"INCLINATION":42.9992,"RA_OF_ASC_NODE":158.8259,"ARG_OF_PERICENTER":276.2252,"MEAN_ANOMALY":83.8431,"EPHEMERIS_TYPE":0,"CLASSIFICATION_TYPE":"U","NORAD_CAT_ID":58175,"ELEMENT_SET_NO":999,"REV_AT_EPOCH":1105,"BSTAR":0.00053369,"MEAN_MOTION_DOT":0.00010213,"MEAN_MOTION_DDOT":0},{"OBJECT_NAME":"STARLINK-30824","OBJECT_ID":"2023-167B","EPOCH":"2024-01-02T20:22:00.025824","MEAN_MOTION":15.15968276,"ECCENTRICITY":0.0001471,"INCLINATION":42.9991,"RA_OF_ASC_NODE":158.809,"ARG_OF_PERICENTER":273.9349,"MEAN_ANOMALY":86.133,"EPHEMERIS_TYPE":0,"CLASSIFICATION_TYPE":"U","NORAD_CAT_ID":58176,"ELEMENT_SET_NO":999,"REV_AT_EPOCH":1105,"BSTAR":0.00041706,"MEAN_MOTION_DOT":7.927e-5,"MEAN_MOTION_DDOT":0},{"OBJECT_NAME":"STARLINK-30791","OBJECT_ID":"2023-167C","EPOCH":"2024-01-02T19:06:35.547264","MEAN_MOTION":15.15964195,"ECCENTRICITY":0.0001514,"INCLINATION":43,"RA_OF_ASC_NODE":158.4086,"ARG_OF_PERICENTER":263.1297,"MEAN_ANOMALY":96.9378,"EPHEMERIS_TYPE":0,"CLASSIFICATION_TYPE":"U","NORAD_CAT_ID":58177,"ELEMENT_SET_NO":999,"REV_AT_EPOCH":1105,"BSTAR":3.4024e-5,"MEAN_MOTION_DOT":4.33e-6,"MEAN_MOTION_DDOT":0},{"OBJECT_NAME":"STARLINK-30810","OBJECT_ID":"2023-167D","EPOCH":"2024-01-02T20:12:09.749664","MEAN_MOTION":15.15981973,"ECCENTRICITY":0.0001213,"INCLINATION":42.9976,"RA_OF_ASC_NODE":158.76,"ARG_OF_PERICENTER":271.3835,"MEAN_ANOMALY":88.6874,"EPHEMERIS_TYPE":0,"CLASSIFICATION_TYPE":"U","NORAD_CAT_ID":58178,"ELEMENT_SET_NO":999,"REV_AT_EPOCH":1105,"BSTAR":0.00073542,"MEAN_MOTION_DOT":0.00014173,"MEAN_MOTION_DDOT":0}]
